NORAD_CAT_ID,OBJECT_NAME,OBJECT_TYPE,EPOCH,MEAN_MOTION,ECCENTRICITY,INCLINATION,RA_OF_ASC_NODE,ARG_OF_PERICENTER,MEAN_ANOMALY,BSTAR,MEAN_MOTION_DOT,MEAN_MOTION_DDOT,TLE_LINE0,TLE_LINE1,TLE_LINE2,SEMIMAJOR_AXIS,PERIOD,APOGEE,PERIGEE,DECAYED
52368.0,STARLINK-3834,PAYLOAD,2024-04-19 04:54:10,15.08859742,0.0001339,53.2177,44.341,111.0162,249.0973,0.00013812,1.912e-05,0.0,0 STARLINK-3834,1 52368U 22045AP  24110.20428545  .00001912  00000-0  13812-3 0  9996,2 52368  53.2177  44.3410 0001339 111.0162 249.0973 15.08859742111821,6917.82,95.436,540.611,538.759,0.0
52368.0,STARLINK-3834,PAYLOAD,2024-04-19 19:12:40,15.08835831,0.0001843,53.2185,41.6637,97.0314,263.0888,0.00025592,3.787e-05,0.0,0 STARLINK-3834,1 52368U 22045AP  24110.80046592  .00003787  00000-0  25592-3 0  9990,2 52368  53.2185  41.6637 0001843  97.0314 263.0888 15.08835831111917,6917.893,95.438,541.033,538.483,0.0
52368.0,STARLINK-3834,PAYLOAD,2024-04-20 04:44:57,15.08869236,0.0001616,53.2191,39.8739,106.75,253.3669,0.0006636,0.00010297,0.0,0 STARLINK-3834,1 52368U 22045AP  24111.19788778  .00010297  00000-0  66360-3 0  9994,2 52368  53.2191  39.8739 0001616 106.7500 253.3669 15.08869236111970,6917.791,95.436,540.774,538.538,0.0
52368.0,STARLINK-3834,PAYLOAD,2024-04-20 19:03:27,15.08831194,0.000119,53.2192,37.2046,114.6186,245.493,-2.5142e-05,-6.88e-06,0.0,0 STARLINK-3834,1 52368U 22045AP  24111.79406557 -.00000688  00000-0 -25142-4 0  9991,2 52368  53.2192  37.2046 0001190 114.6186 245.4930 15.08831194112065,6917.907,95.438,540.596,538.949,0.0
52368.0,STARLINK-3834,PAYLOAD,2024-04-21 01:24:59,15.08836891,0.0001474,53.2184,36.0108,123.4692,236.6441,-0.000211,-3.644e-05,0.0,0 STARLINK-3834,1 52368U 22045AP  24112.05902191 -.00003644  00000-0 -21100-3 0  9990,2 52368  53.2184  36.0108 0001474 123.4692 236.6441 15.08836891112100,6917.89,95.438,540.775,538.735,0.0
52368.0,STARLINK-3834,PAYLOAD,2024-04-21 22:05:00,15.08838701,0.0001167,53.2175,32.1457,104.918,255.1941,-0.00014751,-2.635e-05,0.0,0 STARLINK-3834,1 52368U 22045AP  24112.92014708 -.00002635  00000-0 -14751-3 0  9997,2 52368  53.2175  32.1457 0001167 104.9180 255.1941 15.08838701112236,6917.884,95.438,540.557,538.942,0.0
52368.0,STARLINK-3834,PAYLOAD,2024-04-22 04:26:32,15.0885665,0.0001457,53.2191,30.9538,110.3308,249.7841,8.4452e-05,1.057e-05,0.0,0 STARLINK-3834,1 52368U 22045AP  24113.18509748  .00001057  00000-0  84452-4 0  9990,2 52368  53.2191  30.9538 0001457 110.3308 249.7841 15.08856650112270,6917.829,95.437,540.702,538.687,0.0
52368.0,STARLINK-3834,PAYLOAD,2024-04-22 21:55:48,15.08835826,0.0001672,53.2181,27.6798,136.2181,223.8943,0.00021057,3.064e-05,0.0,0 STARLINK-3834,1 52368U 22045AP  24113.91375028  .00003064  00000-0  21057-3 0  9994,2 52368  53.2181  27.6798 0001672 136.2181 223.8943 15.08835826112385,6917.893,95.438,540.915,538.601,0.0
52368.0,STARLINK-3834,PAYLOAD,2024-04-23 04:17:20,15.08840904,0.0001326,53.219,26.4899,121.7033,238.4088,0.00021013,3.058e-05,0.0,0 STARLINK-3834,1 52368U 22045AP  24114.17870853  .00003058  00000-0  21013-3 0  9994,2 52368  53.2190  26.4899 0001326 121.7033 238.4088 15.08840904112425,6917.878,95.437,540.66,538.825,0.0
52368.0,STARLINK-3834,PAYLOAD,2024-04-23 21:46:34,15.08840984,0.0001793,53.2184,23.2209,125.3991,234.7169,-6.8354e-05,-1.376e-05,0.0,0 STARLINK-3834,1 52368U 22045AP  24114.90734807 -.00001376  00000-0 -68354-4 0  9996,2 52368  53.2184  23.2209 0001793 125.3991 234.7169 15.08840984112538,6917.877,95.437,540.983,538.502,0.0
52368.0,STARLINK-3834,PAYLOAD,2024-04-24 04:08:07,15.08845729,0.0001668,53.2188,22.0305,123.3755,236.7397,8.6343e-06,-1.51e-06,0.0,0 STARLINK-3834,1 52368U 22045AP  24115.17230472 -.00000151  00000-0  86343-5 0  9993,2 52368  53.2188  22.0305 0001668 123.3755 236.7397 15.08845729112574,6917.863,95.437,540.882,538.574,0.0
52368.0,STARLINK-3834,PAYLOAD,2024-04-24 21:37:22,15.08838147,0.0002023,53.2194,18.7589,126.2134,233.9046,-3.2902e-05,-8.12e-06,0.0,0 STARLINK-3834,1 52368U 22045AP  24115.90095173 -.00000812  00000-0 -32902-4 0  9997,2 52368  53.2194  18.7589 0002023 126.2134 233.9046 15.08838147112684,6917.886,95.438,541.151,538.352,0.0
52368.0,STARLINK-3834,PAYLOAD,2024-04-25 02:23:31,15.08845867,0.0001137,53.2187,17.8687,103.744,256.3679,0.00012138,1.645e-05,0.0,0 STARLINK-3834,1 52368U 22045AP  24116.09966970  .00001645  00000-0  12138-3 0  9991,2 52368  53.2187  17.8687 0001137 103.7440 256.3679 15.08845867112712,6917.862,95.437,540.514,538.941,0.0
52368.0,STARLINK-3834,PAYLOAD,2024-04-25 21:28:09,15.08843229,0.0001297,53.2194,14.3088,105.851,254.2625,-2.9078e-05,-7.51e-06,0.0,0 STARLINK-3834,1 52368U 22045AP  24116.89455466 -.00000751  00000-0 -29078-4 0  9993,2 52368  53.2194  14.3088 0001297 105.8510 254.2625 15.08843229112836,6917.871,95.437,540.633,538.838,0.0
52368.0,STARLINK-3834,PAYLOAD,2024-04-26 10:11:14,15.08840853,0.0001411,53.2192,11.9171,128.5654,231.5465,0.00014918,2.087e-05,0.0,0 STARLINK-3834,1 52368U 22045AP  24117.42447189  .00002087  00000-0  14918-3 0  9994,2 52368  53.2192  11.9171 0001411 128.5654 231.5465 15.08840853112918,6917.878,95.438,540.719,538.767,0.0
52368.0,STARLINK-3834,PAYLOAD,2024-04-26 16:32:48,15.08823136,0.0001414,53.2184,10.7374,80.3502,279.765,-8.4581e-05,-1.633e-05,0.0,0 STARLINK-3834,1 52368U 22045AP  24117.68944447 -.00001633  00000-0 -84581-4 0  9993,2 52368  53.2184  10.7374 0001414  80.3502 279.7650 15.08823136112950,6917.932,95.439,540.775,538.819,0.0
52368.0,STARLINK-3834,PAYLOAD,2024-04-27 02:05:05,15.08859007,0.0001365,53.2184,8.952,100.8288,259.2857,0.00028076,4.185e-05,0.0,0 STARLINK-3834,1 52368U 22045AP  24118.08686536  .00004185  00000-0  28076-3 0  9999,2 52368  53.2184   8.9520 0001365 100.8288 259.2857 15.08859007113012,6917.822,95.436,540.632,538.743,0.0
52368.0,STARLINK-3834,PAYLOAD,2024-04-27 10:02:02,15.08836244,0.0001689,53.2191,7.4683,93.8065,266.3121,3.0906e-05,2.04e-06,0.0,0 STARLINK-3834,1 52368U 22045AP  24118.41808204  .00000204  00000-0  30906-4 0  9998,2 52368  53.2191   7.4683 0001689  93.8065 266.3121 15.08836244113063,6917.892,95.438,540.925,538.588,0.0
52368.0,STARLINK-3834,PAYLOAD,2024-04-27 22:45:07,15.08842327,0.0001172,53.2183,5.0868,92.4776,267.635,-9.9318e-05,-1.868e-05,0.0,0 STARLINK-3834,1 52368U 22045AP  24118.94800048 -.00001868  00000-0 -99318-4 0  9995,2 52368  53.2183   5.0868 0001172  92.4776 267.6350 15.08842327113140,6917.873,95.437,540.549,538.928,0.0
52368.0,STARLINK-3834,PAYLOAD,2024-04-28 09:52:48,15.08851226,0.0001358,53.2186,3.0065,86.7742,273.3406,-6.3543e-05,-1.299e-05,0.0,0 STARLINK-3834,1 52368U 22045AP  24119.41167246 -.00001299  00000-0 -63543-4 0  9993,2 52368  53.2186   3.0065 0001358  86.7742 273.3406 15.08851226113217,6917.846,95.437,540.651,538.772,0.0
52368.0,STARLINK-3834,PAYLOAD,2024-04-28 19:25:07,15.08831702,0.0001345,53.2189,1.2222,89.8655,270.2492,0.00017767,2.54e-05,0.0,0 STARLINK-3834,1 52368U 22045AP  24119.80912031  .00002540  00000-0  17767-3 0  9990,2 52368  53.2189   1.2222 0001345  89.8655 270.2492 15.08831702113272,6917.906,95.438,540.701,538.84,0.0
52368.0,STARLINK-3834,PAYLOAD,2024-04-28 22:35:54,15.08836187,0.0001346,53.2195,0.6282,90.4453,269.6693,0.00021408,3.12e-05,0.0,0 STARLINK-3834,1 52368U 22045AP  24119.94159732  .00003120  00000-0  21408-3 0  9998,2 52368  53.2195   0.6282 0001346  90.4453 269.6693 15.08836187113292,6917.892,95.438,540.688,538.826,0.0
52368.0,STARLINK-3834,PAYLOAD,2024-04-29 01:46:39,15.08851441,0.0001569,53.2197,0.0319,93.3525,266.7647,-1.2588e-05,-4.88e-06,0.0,0 STARLINK-3834,1 52368U 22045AP  24120.07407196 -.00000488  00000-0 -12588-4 0  9990,2 52368  53.2197   0.0319 0001569  93.3525 266.7647 15.08851441113318,6917.845,95.437,540.796,538.625,0.0
52368.0,STARLINK-3834,PAYLOAD,2024-04-29 20:51:18,15.08834806,0.0001622,53.2195,356.4633,90.0849,270.0329,0.00010191,1.334e-05,0.0,0 STARLINK-3834,1 52368U 22045AP  24120.86896034  .00001334  00000-0  10191-3 0  9996,2 52368  53.2195 356.4633 0001622  90.0849 270.0329 15.08834806113430,6917.896,95.438,540.883,538.639,0.0
52368.0,STARLINK-3834,PAYLOAD,2024-04-29 22:26:41,15.08837724,0.0001532,53.2184,356.1678,81.4186,278.698,0.00011748,1.582e-05,0.0,0 STARLINK-3834,1 52368U 22045AP  24120.93519908  .00001582  00000-0  11748-3 0  9990,2 52368  53.2184 356.1678 0001532  81.4186 278.6980 15.08837724113442,6917.887,95.438,540.812,538.693,0.0
52368.0,STARLINK-3834,PAYLOAD,2024-04-30 22:17:28,15.08842181,0.0001433,53.2175,351.7087,79.964,280.1513,0.00010735,1.421e-05,0.0,0 STARLINK-3834,1 52368U 22045AP  24121.92879707  .00001421  00000-0  10735-3 0  9993,2 52368  53.2175 351.7087 0001433  79.9640 280.1513 15.08842181113593,6917.874,95.437,540.73,538.747,0.0
52368.0,STARLINK-3834,PAYLOAD,2024-05-01 07:49:46,15.08845454,0.0001355,53.2169,349.9245,78.1063,282.0081,-1.6293e-05,-5.47e-06,0.0,0 STARLINK-3834,1 52368U 22045AP  24122.32623626 -.00000547  00000-0 -16293-4 0  9991,2 52368  53.2169 349.9245 0001355  78.1063 282.0081 15.08845454113658,6917.864,95.437,540.666,538.791,0.0
52368.0,STARLINK-3834,PAYLOAD,2024-05-01 22:08:15,15.08837977,0.0001399,53.2176,347.2492,81.3496,278.7655,5.3793e-06,-2.02e-06,0.0,0 STARLINK-3834,1 52368U 22045AP  24122.92240277 -.00000202  00000-0  53793-5 0  9998,2 52368  53.2176 347.2492 0001399  81.3496 278.7655 15.08837977113745,6917.887,95.438,540.719,538.784,0.0
52368.0,STARLINK-3834,PAYLOAD,2024-05-02 01:19:01,15.0883939,0.0001435,53.2169,346.6525,76.2715,283.8437,1.2039e-05,-9.6e-07,0.0,0 STARLINK-3834,1 52368U 22045AP  24123.05488145 -.00000096  00000-0  12039-4 0  9999,2 52368  53.2169 346.6525 0001435  76.2715 283.8437 15.08839390113763,6917.882,95.438,540.74,538.755,0.0
52368.0,STARLINK-3834,PAYLOAD,2024-05-02 07:40:34,15.08841001,0.0001463,53.2165,345.4638,79.2001,280.9156,4.3362e-05,4.02e-06,0.0,0 STARLINK-3834,1 52368U 22045AP  24123.31983947  .00000402  00000-0  43362-4 0  9991,2 52368  53.2165 345.4638 0001463  79.2001 280.9156 15.08841001113806,6917.877,95.437,540.754,538.73,0.0
